CCSDS_OMM_VERS = 2.0
CREATION_DATE  = 
ORIGINATOR     = 

OBJECT_NAME    = KUIPER-00453
OBJECT_ID      = 2026-098AE
CENTER_NAME    = EARTH
REF_FRAME      = TEME
TIME_SYSTEM    = UTC
MEAN_ELEMENT_THEORY = SGP/SGP4

EPOCH          = 2026-05-23T11:19:17.980896
MEAN_MOTION    = 15.36248299
ECCENTRICITY   = .0003304
INCLINATION    = 51.8743
RA_OF_ASC_NODE = 186.6161
ARG_OF_PERICENTER = 98.2426
MEAN_ANOMALY   = 261.8935

EPHEMERIS_TYPE = 0
CLASSIFICATION_TYPE = U
NORAD_CAT_ID   = 68947
ELEMENT_SET_NO = 999
REV_AT_EPOCH   = 355
BSTAR          = .44692E-3
MEAN_MOTION_DOT = .15683E-3
MEAN_MOTION_DDOT = 0

CCSDS_OMM_VERS = 2.0
CREATION_DATE  = 
ORIGINATOR     = 

OBJECT_NAME    = KUIPER-00454
OBJECT_ID      = 2026-098AF
CENTER_NAME    = EARTH
REF_FRAME      = TEME
TIME_SYSTEM    = UTC
MEAN_ELEMENT_THEORY = SGP/SGP4

EPOCH          = 2026-05-23T11:25:28.538400
MEAN_MOTION    = 15.29248783
ECCENTRICITY   = .0016289
INCLINATION    = 51.8766
RA_OF_ASC_NODE = 187.3785
ARG_OF_PERICENTER = 53.0497
MEAN_ANOMALY   = 307.1975

EPHEMERIS_TYPE = 0
CLASSIFICATION_TYPE = U
NORAD_CAT_ID   = 68948
ELEMENT_SET_NO = 999
REV_AT_EPOCH   = 354
BSTAR          = -.94562E-4
MEAN_MOTION_DOT = -.3099E-4
MEAN_MOTION_DDOT = 0

CCSDS_OMM_VERS = 2.0
CREATION_DATE  = 
ORIGINATOR     = 

OBJECT_NAME    = KUIPER-00455
OBJECT_ID      = 2026-098AG
CENTER_NAME    = EARTH
REF_FRAME      = TEME
TIME_SYSTEM    = UTC
MEAN_ELEMENT_THEORY = SGP/SGP4

EPOCH          = 2026-05-23T11:33:50.797152
MEAN_MOTION    = 15.29976877
ECCENTRICITY   = .0019645
INCLINATION    = 51.8733
RA_OF_ASC_NODE = 187.4096
ARG_OF_PERICENTER = 64.8649
MEAN_ANOMALY   = 295.4369

EPHEMERIS_TYPE = 0
CLASSIFICATION_TYPE = U
NORAD_CAT_ID   = 68949
ELEMENT_SET_NO = 999
REV_AT_EPOCH   = 354
BSTAR          = -.41035E-5
MEAN_MOTION_DOT = -.494E-5
MEAN_MOTION_DDOT = 0

CCSDS_OMM_VERS = 2.0
CREATION_DATE  = 
ORIGINATOR     = 

OBJECT_NAME    = KUIPER-00458
OBJECT_ID      = 2026-098AH
CENTER_NAME    = EARTH
REF_FRAME      = TEME
TIME_SYSTEM    = UTC
MEAN_ELEMENT_THEORY = SGP/SGP4

EPOCH          = 2026-05-23T11:25:06.390624
MEAN_MOTION    = 15.35885773
ECCENTRICITY   = .0003764
INCLINATION    = 51.8753
RA_OF_ASC_NODE = 186.6450
ARG_OF_PERICENTER = 57.2618
MEAN_ANOMALY   = 302.8731

EPHEMERIS_TYPE = 0
CLASSIFICATION_TYPE = U
NORAD_CAT_ID   = 68950
ELEMENT_SET_NO = 999
REV_AT_EPOCH   = 355
BSTAR          = .55381E-3
MEAN_MOTION_DOT = .19308E-3
MEAN_MOTION_DDOT = 0

CCSDS_OMM_VERS = 2.0
CREATION_DATE  = 
ORIGINATOR     = 

OBJECT_NAME    = STARLINK-37258
OBJECT_ID      = 2026-099A
CENTER_NAME    = EARTH
REF_FRAME      = TEME
TIME_SYSTEM    = UTC
MEAN_ELEMENT_THEORY = SGP/SGP4

EPOCH          = 2026-05-23T12:00:04.000320
MEAN_MOTION    = 15.73193561
ECCENTRICITY   = .0001084
INCLINATION    = 53.1594
RA_OF_ASC_NODE = 278.3447
ARG_OF_PERICENTER = 86.7696
MEAN_ANOMALY   = 115.3993

EPHEMERIS_TYPE = 0
CLASSIFICATION_TYPE = U
NORAD_CAT_ID   = 68951
ELEMENT_SET_NO = 999
REV_AT_EPOCH   = 469
BSTAR          = -.15982E-1
MEAN_MOTION_DOT = -.198308E-1
MEAN_MOTION_DDOT = 0

CCSDS_OMM_VERS = 2.0
CREATION_DATE  = 
ORIGINATOR     = 

OBJECT_NAME    = STARLINK-37308
OBJECT_ID      = 2026-099B
CENTER_NAME    = EARTH
REF_FRAME      = TEME
TIME_SYSTEM    = UTC
MEAN_ELEMENT_THEORY = SGP/SGP4

EPOCH          = 2026-05-23T12:00:04.000320
MEAN_MOTION    = 15.57260487
ECCENTRICITY   = .0000833
INCLINATION    = 53.1597
RA_OF_ASC_NODE = 278.7721
ARG_OF_PERICENTER = 83.1500
MEAN_ANOMALY   = 269.2638

EPHEMERIS_TYPE = 0
CLASSIFICATION_TYPE = U
NORAD_CAT_ID   = 68952
ELEMENT_SET_NO = 999
REV_AT_EPOCH   = 469
BSTAR          = -.2929E-1
MEAN_MOTION_DOT = -.1917463E-1
MEAN_MOTION_DDOT = 0

CCSDS_OMM_VERS = 2.0
CREATION_DATE  = 
ORIGINATOR     = 

OBJECT_NAME    = STARLINK-37337
OBJECT_ID      = 2026-099C
CENTER_NAME    = EARTH
REF_FRAME      = TEME
TIME_SYSTEM    = UTC
MEAN_ELEMENT_THEORY = SGP/SGP4

EPOCH          = 2026-05-23T12:00:04.000320
MEAN_MOTION    = 15.54767164
ECCENTRICITY   = .0001155
INCLINATION    = 53.1600
RA_OF_ASC_NODE = 278.8721
ARG_OF_PERICENTER = 91.3199
MEAN_ANOMALY   = 211.9853

EPHEMERIS_TYPE = 0
CLASSIFICATION_TYPE = U
NORAD_CAT_ID   = 68953
ELEMENT_SET_NO = 999
REV_AT_EPOCH   = 469
BSTAR          = -.31854E-1
MEAN_MOTION_DOT = -.1901877E-1
MEAN_MOTION_DDOT = 0

CCSDS_OMM_VERS = 2.0
CREATION_DATE  = 
ORIGINATOR     = 

OBJECT_NAME    = STARLINK-37301
OBJECT_ID      = 2026-099D
CENTER_NAME    = EARTH
REF_FRAME      = TEME
TIME_SYSTEM    = UTC
MEAN_ELEMENT_THEORY = SGP/SGP4

EPOCH          = 2026-05-23T12:00:04.000320
MEAN_MOTION    = 15.56270198
ECCENTRICITY   = .0000698
INCLINATION    = 53.1596
RA_OF_ASC_NODE = 278.6986
ARG_OF_PERICENTER = 81.6893
MEAN_ANOMALY   = 306.0283

EPHEMERIS_TYPE = 0
CLASSIFICATION_TYPE = U
NORAD_CAT_ID   = 68954
ELEMENT_SET_NO = 999
REV_AT_EPOCH   = 469
BSTAR          = -.34487E-1
MEAN_MOTION_DOT = -.2184313E-1
MEAN_MOTION_DDOT = 0

CCSDS_OMM_VERS = 2.0
CREATION_DATE  = 
ORIGINATOR     = 

OBJECT_NAME    = STARLINK-36794
OBJECT_ID      = 2026-099E
CENTER_NAME    = EARTH
REF_FRAME      = TEME
TIME_SYSTEM    = UTC
MEAN_ELEMENT_THEORY = SGP/SGP4

EPOCH          = 2026-05-23T12:00:04.000320
MEAN_MOTION    = 15.72336035
ECCENTRICITY   = .0000972
INCLINATION    = 53.1596
RA_OF_ASC_NODE = 278.3308
ARG_OF_PERICENTER = 75.6638
MEAN_ANOMALY   = 133.4051

EPHEMERIS_TYPE = 0
CLASSIFICATION_TYPE = U
NORAD_CAT_ID   = 68955
ELEMENT_SET_NO = 999
REV_AT_EPOCH   = 474
BSTAR          = -.16396E-1
MEAN_MOTION_DOT = -.1963069E-1
MEAN_MOTION_DDOT = 0

CCSDS_OMM_VERS = 2.0
CREATION_DATE  = 
ORIGINATOR     = 

OBJECT_NAME    = STARLINK-36760
OBJECT_ID      = 2026-099F
CENTER_NAME    = EARTH
REF_FRAME      = TEME
TIME_SYSTEM    = UTC
MEAN_ELEMENT_THEORY = SGP/SGP4

EPOCH          = 2026-05-23T12:00:04.000320
MEAN_MOTION    = 15.72295809
ECCENTRICITY   = .0000964
INCLINATION    = 53.1593
RA_OF_ASC_NODE = 278.3128
ARG_OF_PERICENTER = 83.5988
MEAN_ANOMALY   = 133.7257

EPHEMERIS_TYPE = 0
CLASSIFICATION_TYPE = U
NORAD_CAT_ID   = 68956
ELEMENT_SET_NO = 999
REV_AT_EPOCH   = 474
BSTAR          = -.16423E-1
MEAN_MOTION_DOT = -.1962911E-1
MEAN_MOTION_DDOT = 0

CCSDS_OMM_VERS = 2.0
CREATION_DATE  = 
ORIGINATOR     = 

OBJECT_NAME    = STARLINK-37047
OBJECT_ID      = 2026-099G
CENTER_NAME    = EARTH
REF_FRAME      = TEME
TIME_SYSTEM    = UTC
MEAN_ELEMENT_THEORY = SGP/SGP4

EPOCH          = 2026-05-23T12:00:04.000320
MEAN_MOTION    = 15.54743175
ECCENTRICITY   = .0001123
INCLINATION    = 53.1602
RA_OF_ASC_NODE = 278.8377
ARG_OF_PERICENTER = 87.1056
MEAN_ANOMALY   = 232.8329

EPHEMERIS_TYPE = 0
CLASSIFICATION_TYPE = U
NORAD_CAT_ID   = 68957
ELEMENT_SET_NO = 999
REV_AT_EPOCH   = 474
BSTAR          = -.31831E-1
MEAN_MOTION_DOT = -.189915E-1
MEAN_MOTION_DDOT = 0

CCSDS_OMM_VERS = 2.0
CREATION_DATE  = 
ORIGINATOR     = 

OBJECT_NAME    = STARLINK-36242
OBJECT_ID      = 2026-099H
CENTER_NAME    = EARTH
REF_FRAME      = TEME
TIME_SYSTEM    = UTC
MEAN_ELEMENT_THEORY = SGP/SGP4

EPOCH          = 2026-05-23T12:00:04.000320
MEAN_MOTION    = 15.73133390
ECCENTRICITY   = .0000913
INCLINATION    = 53.1592
RA_OF_ASC_NODE = 278.2830
ARG_OF_PERICENTER = 79.2567
MEAN_ANOMALY   = 152.4787

EPHEMERIS_TYPE = 0
CLASSIFICATION_TYPE = U
NORAD_CAT_ID   = 68958
ELEMENT_SET_NO = 999
REV_AT_EPOCH   = 474
BSTAR          = -.1587E-1
MEAN_MOTION_DOT = -.1966112E-1
MEAN_MOTION_DDOT = 0

CCSDS_OMM_VERS = 2.0
CREATION_DATE  = 
ORIGINATOR     = 

OBJECT_NAME    = STARLINK-37033
OBJECT_ID      = 2026-099J
CENTER_NAME    = EARTH
REF_FRAME      = TEME
TIME_SYSTEM    = UTC
MEAN_ELEMENT_THEORY = SGP/SGP4

EPOCH          = 2026-05-23T12:00:04.000320
MEAN_MOTION    = 15.53668955
ECCENTRICITY   = .0000793
INCLINATION    = 53.1596
RA_OF_ASC_NODE = 278.7605
ARG_OF_PERICENTER = 68.5651
MEAN_ANOMALY   = 289.1796

EPHEMERIS_TYPE = 0
CLASSIFICATION_TYPE = U
NORAD_CAT_ID   = 68959
ELEMENT_SET_NO = 999
REV_AT_EPOCH   = 474
BSTAR          = -.37897E-1
MEAN_MOTION_DOT = -.2180076E-1
MEAN_MOTION_DDOT = 0

CCSDS_OMM_VERS = 2.0
CREATION_DATE  = 
ORIGINATOR     = 

OBJECT_NAME    = STARLINK-36978
OBJECT_ID      = 2026-099K
CENTER_NAME    = EARTH
REF_FRAME      = TEME
TIME_SYSTEM    = UTC
MEAN_ELEMENT_THEORY = SGP/SGP4

EPOCH          = 2026-05-23T12:00:04.000320
MEAN_MOTION    = 15.54779866
ECCENTRICITY   = .0000973
INCLINATION    = 53.1600
RA_OF_ASC_NODE = 278.8102
ARG_OF_PERICENTER = 88.7590
MEAN_ANOMALY   = 244.6394

EPHEMERIS_TYPE = 0
CLASSIFICATION_TYPE = U
NORAD_CAT_ID   = 68960
ELEMENT_SET_NO = 999
REV_AT_EPOCH   = 474
BSTAR          = -.32059E-1
MEAN_MOTION_DOT = -.1913316E-1
MEAN_MOTION_DDOT = 0

CCSDS_OMM_VERS = 2.0
CREATION_DATE  = 
ORIGINATOR     = 

OBJECT_NAME    = STARLINK-36965
OBJECT_ID      = 2026-099L
CENTER_NAME    = EARTH
REF_FRAME      = TEME
TIME_SYSTEM    = UTC
MEAN_ELEMENT_THEORY = SGP/SGP4

EPOCH          = 2026-05-23T12:00:04.000320
MEAN_MOTION    = 15.56183553
ECCENTRICITY   = .0000881
INCLINATION    = 53.1600
RA_OF_ASC_NODE = 278.7376
ARG_OF_PERICENTER = 82.8461
MEAN_ANOMALY   = 285.5518

EPHEMERIS_TYPE = 0
CLASSIFICATION_TYPE = U
NORAD_CAT_ID   = 68961
ELEMENT_SET_NO = 999
REV_AT_EPOCH   = 474
BSTAR          = -.30654E-1
MEAN_MOTION_DOT = -.1925966E-1
MEAN_MOTION_DDOT = 0

